"Weywot:Quaoar I:50000 Quaoar I:S 2006 (50000) 1" "Sol/Quaoar"
{
	Class	"moon"
	Mesh	"asteroid.cms"  # almost 200 km effective diameter
	Texture	"asteroid.*"
	Color	[ 0.359 0.328 0.282 ]  # assume same photometric color as primary
	BlendTexture	true
	Radius	100
	OrbitFrame
	{
		EquatorJ2000	{ Center "Sol/Quaoar" }
	}
	EllipticalOrbit
	{
		Epoch	2453300.5  # 2004 Oct 22
		Period	12.4315
		SemiMajorAxis	13583
		Eccentricity	0.057
		Inclination	36.9
		AscendingNode	357.0
		ArgOfPericenter	10.1
		MeanAnomaly	69.2
	}
	UniformRotation  # to match orbit plane
	{
		Inclination	13.5
		AscendingNode	352.3
	}
	LunarLambert	0.5
	GeomAlbedo	0.04
	InfoURL	"https://en.wikipedia.org/wiki/Weywot_(moon)"
}

# Mass for Makemake from Parker et al. (2018)
# "The Mass, Density, and Figure of the Kuiper Belt Dwarf Planet Makemake"
# https://ui.adsabs.harvard.edu/abs/2018DPS....5050902P/abstract
# Photometric color calculated with spectral data from Alvarez-Candal et al. (2020), MNRAS 497 (4), 5473-5479
# "The dwarf planet Makemake as seen by X-Shooter"
# https://ui.adsabs.harvard.edu/abs/2020MNRAS.497.5473A/abstract
# Color calculated with phase integral from Verbiscer et al. (2022), Planet. Sci. J. 3, 95
# "The Diverse Shapes of Dwarf Planet and Large KBO Phase Curves Observed from New Horizons"
# https://ui.adsabs.harvard.edu/abs/2022PSJ.....3...95V/abstract
"Makemake:136472 Makemake:2005 FY9" "Sol"
{
	Class	"dwarfplanet"
	Texture	"icy.*"
	Color	[ 0.988 0.963 0.902 ]
	BlendTexture	true
	Radius	717
	Oblateness	0.0098
	Mass<kg>	3.1e21
	EllipticalOrbit
	{
		Epoch	2451545.0  # 2000 Jan 01 12:00
		Period	305.618241910877
		SemiMajorAxis	45.3712468060245
		Eccentricity	0.1645340773347865
		Inclination	29.00016830342264
		AscendingNode	79.27517546848136
		ArgOfPericenter	296.2776194996502
		MeanAnomaly	139.7234923399146
	}
	UniformRotation
	{
		Period	22.82657
	}
	LunarLambert	0.5
	GeomAlbedo	0.81
	InfoURL	"https://en.wikipedia.org/wiki/Makemake"
}

"S 2015 (136472) 1:MK 2" "Sol/Makemake"
{
	Class	"moon"
	Mesh	"asteroid.cms"
	Texture	"asteroid.*"
	Radius	87.5
	EllipticalOrbit
	{
		Period	12.4
		SemiMajorAxis	21100
	}
	UniformRotation
	{
		Period	10
	}
	LunarLambert	0.5
	GeomAlbedo	0.07
	InfoURL	"https://en.wikipedia.org/wiki/S/2015_(136472)_1"
}

# Kiss et al. (2019), Icarus 334, 3
# "The mass and density of the dwarf planet (225088) 2007 OR10"
# https://ui.adsabs.harvard.edu/abs/2019Icar..334....3K/abstract
# Color indices from Boehnhardt et al. (2014), EMP 114 (1-2), 35
# "Photometry of Transneptunian Objects for the Herschel Key Program 'TNOs are Cool'"
# https://ui.adsabs.harvard.edu/abs/2014EM%26P..114...35B/abstract
"Gonggong:225088 Gonggong:2007 OR10" "Sol"
{
	Class	"dwarfplanet"
	Texture	"icy.*"
	Color	[ 0.504 0.444 0.341 ]
	BlendTexture	true
	Radius	615
	Mass<kg>	1.75e21
	EllipticalOrbit
	{
		Epoch	2459000.5  # 2020 May 31
		Period	554.216220202748
		SemiMajorAxis	67.47051418678518
		Eccentricity	0.5004814860780427
		Inclination	30.6568537182735
		AscendingNode	336.8538560791695
		ArgOfPericenter	207.6663020246991
		MeanAnomaly	106.0196839227434
	}
	UniformRotation  # assume coplanarity with satellite orbit
	{
		Period	22.40
		Inclination	63.553
		AscendingNode	35.972
	}
	LunarLambert	0.5
	GeomAlbedo	0.14
	InfoURL	"https://en.wikipedia.org/wiki/Gonggong_(dwarf_planet)"
}

# Radius from Arakawa et al. (2021), AJ 162, no. 6, 226
# "Tidal Evolution of the Eccentric Moon around Dwarf Planet (225088) Gonggong"
# https://ui.adsabs.harvard.edu/abs/2021AJ....162..226A/abstract
# Geometric albedo is calculated using this radius.
# Color indices from Kiss et al. (2019), Icarus 334, 3
# "The mass and density of the dwarf planet (225088) 2007 OR10"
# https://ui.adsabs.harvard.edu/abs/2019Icar..334....3K/abstract
"Xiangliu:Gonggong I:225088 Gonggong I:S 2010 (225088) 1" "Sol/Gonggong"
{
	Class	"moon"
	Mesh	"asteroid.cms"
	Texture	"asteroid.*"
	Color	[ 0.495 0.467 0.425 ]
	BlendTexture	true
	Radius	100
	OrbitFrame
	{
		EquatorJ2000	{ Center "Sol/Gonggong" }
	}
	EllipticalOrbit  # prograde solution
	{
		Epoch	2457000.0  # 2014 Dec 08 12:00
		Period	25.22073
		SemiMajorAxis	24021
		Eccentricity	0.2908
		Inclination	83.08
		MeanLongitude	205.57
		AscendingNode	31.99
		LongOfPericenter	109.05
	}
	LunarLambert	0.5
	GeomAlbedo	0.08
	InfoURL	"https://en.wikipedia.org/wiki/Xiangliu_(moon)"
}

# System mass and orbit from Holler et al. (2021), Icarus 355, 114130
# "The Eris/Dysnomia system I: The orbit of Dysnomia"
# https://ui.adsabs.harvard.edu/abs/2021Icar..35514130H/abstract
# Mass ratio from Brown and Butler (2023), Planet. Sci. J. 4, 193
# "Masses and Densities of Dwarf Planet Satellites Measured with ALMA"
# https://ui.adsabs.harvard.edu/abs/2023PSJ.....4..193B/abstract
# (Assumes barycentric motion is detected.)
# Eris' rotation from Bernstein et al. (2023), Planet. Sci. J. 4, 115
# "Synchronous Rotation in the (136199) Eris-Dysnomia System"
# https://ui.adsabs.harvard.edu/abs/2023PSJ.....4..115B/abstract
# (Orientation assumes tidal locking with Dysnomia.)
# Color calculated with phase integral from Verbiscer et al. (2022), Planet. Sci. J. 3, 95
# "The Diverse Shapes of Dwarf Planet and Large KBO Phase Curves Observed from New Horizons"
# https://ui.adsabs.harvard.edu/abs/2022PSJ.....3...95V/abstract
"Eris:136199 Eris:2003 UB313" "Sol"
{
	Class	"dwarfplanet"
	Texture	"icy.*"
	Color	[ 1.0 0.994 0.968 ]
	BlendTexture	true
	Radius	1163
	Mass<kg>	1.638e22
	EllipticalOrbit
	{
		Epoch	2451545.0  # 2000 Jan 01 12:00
		Period	562.497729921706
		SemiMajorAxis	68.14098093308586
		Eccentricity	0.4324925102272213
		Inclination	43.74046387971601
		AscendingNode	36.12853207819096
		ArgOfPericenter	150.8438151283544
		MeanAnomaly	194.2922017610525
	}
	BodyFrame	{ EquatorJ2000 {} }
	UniformRotation
	{
		Epoch	2453979.0  # 2006 Aug 31 12:00
		# Period	378.504  # measured
		Period	378.861576
		Inclination	45.49
		AscendingNode	126.17
		MeridianAngle	359.61
	}
	LunarLambert	0.5
	GeomAlbedo	0.96
	InfoURL	"https://en.wikipedia.org/wiki/Eris_(dwarf_planet)"
}

"Dysnomia:Eris I:136199 Eris I:S 2005 (2003 UB313) 1" "Sol/Eris"
{
	Class	"moon"
	Texture	"asteroid.*"
	Color	[ 0.373 0.373 0.373 ]
	BlendTexture	true
	Radius	307.5
	Mass<kg>	8e19
	OrbitFrame	{ EquatorJ2000 {} }
	EllipticalOrbit
	{
		Epoch	2453979.0  # 2006 Aug 31 12:00
		Period	15.785899
		SemiMajorAxis	37273
		Eccentricity	0.0062
		Inclination	45.49
		MeanLongitude	125.78
		AscendingNode	126.17
		LongOfPericenter	307
	}
	BodyFrame	{ EquatorJ2000 {} }
	UniformRotation
	{
		Epoch	2453979.0  # 2006 Aug 31 12:00
		Inclination	45.49
		AscendingNode	126.17
		MeridianAngle	179.61
	}
	LunarLambert	0.5
	GeomAlbedo	0.05
	InfoURL	"https://en.wikipedia.org/wiki/Dysnomia_(moon)"
}

"Sedna:90377 Sedna:2003 VB12" "Sol"
{
	Class	"dwarfplanet"
	Texture	"icy.*"
	Color	[ 0.793 0.724 0.607 ]
	BlendTexture	true
	Radius	497.5
	EllipticalOrbit
	{
		Epoch	2459000.5  # 2020 May 31
		Period	10662.6713802939
		SemiMajorAxis	484.438385675118
		Eccentricity	0.842587388666
		Inclination	11.930691895012
		AscendingNode	144.247866905974
		ArgOfPericenter	311.352204298832
		MeanAnomaly	358.116930442029
	}
	UniformRotation
	{
		Period	10.273
	}
	LunarLambert	0.5
	GeomAlbedo	0.32
	InfoURL	"https://en.wikipedia.org/wiki/Sedna_(dwarf_planet)"
}
